NORAD_CAT_ID,OBJECT_NAME,OBJECT_TYPE,EPOCH,MEAN_MOTION,ECCENTRICITY,INCLINATION,RA_OF_ASC_NODE,ARG_OF_PERICENTER,MEAN_ANOMALY,BSTAR,MEAN_MOTION_DOT,MEAN_MOTION_DDOT,TLE_LINE0,TLE_LINE1,TLE_LINE2,SEMIMAJOR_AXIS,PERIOD,APOGEE,PERIGEE,DECAYED
52343.0,STARLINK-3849,PAYLOAD,2022-07-03 14:00:01,15.08876746,0.0001852,53.216,127.5193,42.0471,274.60900000000004,-0.00524,-0.0008281,0.0,0 STARLINK-3849,1 52343U 22045N   22184.58334491 -.00082810  00000-0 -52400-2 0  9998,2 52343  53.2160 127.5193 0001852  42.0471 274.6090 15.08876746  1302,6917.768,95.435,540.914,538.352,0.0
52343.0,STARLINK-3849,PAYLOAD,2022-07-03 22:00:00,15.08841194,0.0001875,53.2162,126.023,46.8529,281.3926,-0.0033815,-0.00053706,0.0,0 STARLINK-3849,1 52343U 22045N   22184.91667824 -.00053706  00000-0 -33815-2 0  9995,2 52343  53.2162 126.0230 0001875  46.8529 281.3926 15.08841194  1303,6917.877,95.437,541.039,538.445,0.0
52343.0,STARLINK-3849,PAYLOAD,2022-07-04 06:00:00,15.08777924,0.000202,53.216,124.5282,41.3125,298.5223,0.0025475,0.0004042,0.0,0 STARLINK-3849,1 52343U 22045N   22185.25001157  .00040420  00000-0  25475-2 0  9994,2 52343  53.2160 124.5282 0002020  41.3125 298.5223 15.08777924 12688,6918.07,95.441,541.3330000000002,538.538,0.0
52343.0,STARLINK-3849,PAYLOAD,2022-07-04 14:00:01,15.08792988,0.0001809,53.2159,123.0303,43.524,307.8502,0.0027677,0.00043979,0.0,0 STARLINK-3849,1 52343U 22045N   22185.58334491  .00043979  00000-0  27677-2 0  9998,2 52343  53.2159 123.0303 0001809  43.5240 307.8502 15.08792988  1308,6918.024,95.441,541.141,538.638,0.0
52343.0,STARLINK-3849,PAYLOAD,2022-07-04 22:00:00,15.08848841,0.0001764,53.2161,121.5341,44.7469,318.1801,-0.0010181,-0.00016459,0.0,0 STARLINK-3849,1 52343U 22045N   22185.91667824 -.00016459  00000-0 -10181-2 0  9991,2 52343  53.2161 121.5341 0001764  44.7469 318.1801 15.08848841  1309,6917.853,95.437,540.939,538.498,0.0
52343.0,STARLINK-3849,PAYLOAD,2022-07-05 08:00:01,15.088359900000002,0.000193,53.2154,119.6648,39.3244,68.1066,0.0016089,0.00025408,0.0,0 STARLINK-3849,1 52343U 22045N   22186.33334491  .00025408  00000-0  16089-2 0  9994,2 52343  53.2154 119.6648 0001930  39.3244  68.1066 15.08835990 12842,6917.893,95.438,541.0930000000002,538.422,0.0
52343.0,STARLINK-3849,PAYLOAD,2022-07-05 14:00:01,15.08840522,0.000176,53.2156,118.541,44.9991,341.1357,0.00080673,0.00012575,0.0,0 STARLINK-3849,1 52343U 22045N   22186.58334491  .00012575  00000-0  80673-3 0  9993,2 52343  53.2156 118.5410 0001760  44.9991 341.1357 15.08840522  1304,6917.879,95.438,540.961,538.526,0.0
52343.0,STARLINK-3849,PAYLOAD,2022-07-05 22:00:00,15.08869216,0.0001784,53.2157,117.0451,46.7408,350.9869,-0.0013879,-0.00022326,0.0,0 STARLINK-3849,1 52343U 22045N   22186.91667824 -.00022326  00000-0 -13879-2 0  9999,2 52343  53.2157 117.0451 0001784  46.7408 350.9869 15.08869216  1300,6917.791,95.436,540.89,538.422,0.0
52343.0,STARLINK-3849,PAYLOAD,2022-07-06 06:00:00,15.08842964,0.000191,53.2151,115.5499,41.2219,8.1292,-6.3298e-05,-1.296e-05,0.0,0 STARLINK-3849,1 52343U 22045N   22187.25001157 -.00001296  00000-0 -63298-4 0  9993,2 52343  53.2151 115.5499 0001910  41.2219   8.1292 15.08842964 12989,6917.871,95.437,541.058,538.415,0.0
52343.0,STARLINK-3849,PAYLOAD,2022-07-06 14:00:01,15.08820368,0.0001702,53.215,114.0517,45.1673,15.7892,0.001214,0.00019075,0.0,0 STARLINK-3849,1 52343U 22045N   22187.58334491  .00019075  00000-0  12140-2 0  9999,2 52343  53.2150 114.0517 0001702  45.1673  15.7892 15.08820368  1307,6917.94,95.439,540.9830000000002,538.628,0.0
52343.0,STARLINK-3849,PAYLOAD,2022-07-06 22:00:00,15.08854338,0.0001768,53.215,112.5559,46.9947,25.5368,-0.0016852999999999,-0.0002702,0.0,0 STARLINK-3849,1 52343U 22045N   22187.91667824 -.00027020  00000-0 -16853-2 0  9991,2 52343  53.2150 112.5559 0001768  46.9947  25.5368 15.08854338  1302,6917.837,95.437,540.925,538.4780000000002,0.0
52343.0,STARLINK-3849,PAYLOAD,2022-07-07 14:00:01,15.08832458,0.000175,53.2166,109.5622,47.3672,48.3715,0.0017279,0.00027313,0.0,0 STARLINK-3849,1 52343U 22045N   22188.58334491  .00027313  00000-0  17279-2 0  9992,2 52343  53.2166 109.5622 0001750  47.3672  48.3715 15.08832458 13184,6917.903,95.438,540.979,538.558,0.0
52343.0,STARLINK-3849,PAYLOAD,2022-07-07 22:00:00,15.08870038,0.0001843,53.2166,108.0664,48.6163,58.716,-0.0016476,-0.00026436,0.0,0 STARLINK-3849,1 52343U 22045N   22188.91667824 -.00026436  00000-0 -16476-2 0  9993,2 52343  53.2166 108.0664 0001843  48.6163  58.7160 15.08870038  1302,6917.7890000000025,95.436,540.929,538.379,0.0
52343.0,STARLINK-3849,PAYLOAD,2022-07-08 14:00:01,15.08822748,0.0001779,53.2171,105.0799,43.2069,87.3499,-0.001854,-0.0002966,0.0,0 STARLINK-3849,1 52343U 22045N   22189.58334491 -.00029660  00000-0 -18540-2 0  9994,2 52343  53.2171 105.0799 0001779  43.2069  87.3499 15.08822748  1306,6917.933000000001,95.439,541.029,538.567,0.0
52343.0,STARLINK-3849,PAYLOAD,2022-07-08 22:00:01,15.08854134,0.0001849,53.2169,103.5771,47.9133,94.2996,-0.0018199,-0.00029147,0.0,0 STARLINK-3849,1 52343U 22045N   22189.91668981 -.00029147  00000-0 -18199-2 0  9995,2 52343  53.2169 103.5771 0001849  47.9133  94.2996 15.08854134  1300,6917.837,95.437,540.981,538.423,0.0
52343.0,STARLINK-3849,PAYLOAD,2022-07-09 14:00:01,15.08804144,0.0001822,53.2172,100.5837,47.0718,118.2355,0.00087234,0.00013609,0.0,0 STARLINK-3849,1 52343U 22045N   22190.58334491  .00013609  00000-0  87234-3 0  9997,2 52343  53.2172 100.5837 0001822  47.0718 118.2355 15.08804144  1307,6917.99,95.44,541.115,538.595,0.0
52343.0,STARLINK-3849,PAYLOAD,2022-07-09 16:00:00,15.08811718,0.0001838,53.2172,100.2093,49.1683,209.0275,-0.00017654,-3.094e-05,0.0,0 STARLINK-3849,1 52343U 22045N   22190.66667824 -.00003094  00000-0 -17654-3 0  9993,2 52343  53.2172 100.2093 0001838  49.1683 209.0275 15.08811718 13509,6917.967,95.439,541.1030000000002,538.56,0.0
52343.0,STARLINK-3849,PAYLOAD,2022-07-09 20:00:01,15.08802892,0.0001828,53.2175,99.4672,46.7829,37.1842,0.0064728,0.00104147,0.0,0 STARLINK-3849,1 52343U 22045N   22190.83334491  .00104147  00000-0  64728-2 0  9995,2 52343  53.2175  99.4672 0001828  46.7829  37.1842 15.08802892  1306,6917.994000000002,95.44,541.123,538.594,0.0
52343.0,STARLINK-3849,PAYLOAD,2022-07-10 14:00:01,15.08815976,0.0001869,53.218,96.0948,48.3916,151.644,0.0028287,0.00044989,0.0,0 STARLINK-3849,1 52343U 22045N   22191.58334491  .00044989  00000-0  28287-2 0  9995,2 52343  53.2180  96.0948 0001869  48.3916 151.6440 15.08815976  1304,6917.954000000002,95.439,541.112,538.526,0.0
52343.0,STARLINK-3849,PAYLOAD,2022-07-10 22:00:00,15.08856555,0.0001991,53.2184,94.5997,48.2776,163.3415,-0.0011164,-0.0001802,0.0,0 STARLINK-3849,1 52343U 22045N   22191.91667824 -.00018020  00000-0 -11164-2 0  9996,2 52343  53.2184  94.5997 0001991  48.2776 163.3415 15.08856555  1304,6917.83,95.437,541.072,538.317,0.0
52343.0,STARLINK-3849,PAYLOAD,2022-07-11 06:00:00,15.08861133,0.0002045,53.2182,93.104,44.5082,178.7186,-0.00084409,-0.00013705,0.0,0 STARLINK-3849,1 52343U 22045N   22192.25001157 -.00013705  00000-0 -84409-3 0  9993,2 52343  53.2182  93.1040 0002045  44.5082 178.7186 15.08861133 13739,6917.816,95.436,541.095,538.266,0.0
52343.0,STARLINK-3849,PAYLOAD,2022-07-11 14:00:01,15.08818238,0.000182,53.2186,91.606,48.4549,186.3947,0.0025526,0.00040547,0.0,0 STARLINK-3849,1 52343U 22045N   22192.58334491  .00040547  00000-0  25526-2 0  9995,2 52343  53.2186  91.6060 0001820  48.4549 186.3947 15.08818238  1307,6917.946999999999,95.439,541.071,538.553,0.0
52343.0,STARLINK-3849,PAYLOAD,2022-07-11 22:00:00,15.08853086,0.0001935,53.2188,90.1111,47.4734,198.9604,-0.00096174,-0.00015567,0.0,0 STARLINK-3849,1 52343U 22045N   22192.91667824 -.00015567  00000-0 -96174-3 0  9995,2 52343  53.2188  90.1111 0001935  47.4734 198.9604 15.08853086  1301,6917.84,95.437,541.044,538.367,0.0
52343.0,STARLINK-3849,PAYLOAD,2022-07-12 14:00:01,15.08818716,0.0001719,53.2187,87.1173,48.4246,221.241,0.0036995,0.00059049,0.0,0 STARLINK-3849,1 52343U 22045N   22193.58334491  .00059049  00000-0  36995-2 0  9995,2 52343  53.2187  87.1173 0001719  48.4246 221.2410 15.08818716 13942,6917.945,95.439,541.0,538.621,0.0
52343.0,STARLINK-3849,PAYLOAD,2022-07-12 22:00:00,15.0886274,0.0001833,53.2187,85.6225,46.5487,234.7092,-0.00053171,-8.746e-05,0.0,0 STARLINK-3849,1 52343U 22045N   22193.91667824 -.00008746  00000-0 -53171-3 0  9997,2 52343  53.2187  85.6225 0001833  46.5487 234.7092 15.08862740  1304,6917.811,95.436,540.944,538.408,0.0
52343.0,STARLINK-3849,PAYLOAD,2022-07-13 06:00:00,15.08882806,0.000185,53.2182,84.1264,43.2612,249.6123,-0.0037186,-0.00059055,0.0,0 STARLINK-3849,1 52343U 22045N   22194.25001157 -.00059055  00000-0 -37186-2 0  9992,2 52343  53.2182  84.1264 0001850  43.2612 249.6123 15.08882806 14049,6917.75,95.435,540.894,538.335,0.0
52343.0,STARLINK-3849,PAYLOAD,2022-07-13 14:00:01,15.08806058,0.0001721999999999,53.2183,82.6285,50.9329,253.5691,0.0021561,0.00034161,0.0,0 STARLINK-3849,1 52343U 22045N   22194.58334491  .00034161  00000-0  21561-2 0  9997,2 52343  53.2183  82.6285 0001722  50.9329 253.5691 15.08806058  1308,6917.984,95.44,541.04,538.658,0.0
52343.0,STARLINK-3849,PAYLOAD,2022-07-13 22:00:00,15.08830296,0.0001883,53.2182,81.1338,48.9002,267.1673,-0.00078058,-0.00012686,0.0,0 STARLINK-3849,1 52343U 22045N   22194.91667824 -.00012686  00000-0 -78058-3 0  9997,2 52343  53.2182  81.1338 0001883  48.9002 267.1673 15.08830296 14141,6917.91,95.438,541.078,538.472,0.0
52343.0,STARLINK-3849,PAYLOAD,2022-07-14 14:00:01,15.08785845,0.0001686,53.2176,78.1398,51.7956,287.4353,0.0033903,0.00054002,0.0,0 STARLINK-3849,1 52343U 22045N   22195.58334491  .00054002  00000-0  33903-2 0  9997,2 52343  53.2176  78.1398 0001686  51.7956 287.4353 15.08785845  1300,6918.045999999999,95.441,541.077,538.745,0.0
